$$SOE
2460728.500000000, A.D. 2025-Feb-22 00:00:00.0000, -2.636547765652481E+08, 3.008903791068456E+08, -3.719652577940699E+07,
2460735.500000000, A.D. 2025-Mar-01 00:00:00.0000, -2.734264811476067E+08, 2.960153685334209E+08, -3.614634072156069E+07,
2460742.500000000, A.D. 2025-Mar-08 00:00:00.0000, -2.829977106120832E+08, 2.909233857955621E+08, -3.506965103549355E+07,
2460749.500000000, A.D. 2025-Mar-15 00:00:00.0000, -2.923656692392862E+08, 2.856225050448440E+08, -3.396777007084917E+07,
2460756.500000000, A.D. 2025-Mar-22 00:00:00.0000, -3.015278402659948E+08, 2.801206502948886E+08, -3.284197897493029E+07,
2460763.500000000, A.D. 2025-Mar-29 00:00:00.0000, -3.104819696950760E+08, 2.744255914615613E+08, -3.169352697740290E+07,
2460770.500000000, A.D. 2025-Apr-05 00:00:00.0000, -3.192260492548837E+08, 2.685449421127731E+08, -3.052363185641028E+07,
2460777.500000000, A.D. 2025-Apr-12 00:00:00.0000, -3.277583004208185E+08, 2.624861589384778E+08, -2.933348038778828E+07,
2460784.500000000, A.D. 2025-Apr-19 00:00:00.0000, -3.360771596658726E+08, 2.562565419743252E+08, -2.812422881989618E+07,
2460791.500000000, A.D. 2025-Apr-26 00:00:00.0000, -3.441812646440471E+08, 2.498632352961679E+08, -2.689700340394717E+07,
2460798.500000000, A.D. 2025-May-03 00:00:00.0000, -3.520694411669670E+08, 2.433132281316260E+08, -2.565290097835889E+07,
2460805.500000000, A.D. 2025-May-10 00:00:00.0000, -3.597406909179043E+08, 2.366133563316167E+08, -2.439298959997585E+07,
2460812.500000000, A.D. 2025-May-17 00:00:00.0000, -3.671941798381867E+08, 2.297703041017753E+08, -2.311830922090731E+07,
2460819.500000000, A.D. 2025-May-24 00:00:00.0000, -3.744292269829294E+08, 2.227906058863068E+08, -2.182987242431857E+07,
2460826.500000000, A.D. 2025-May-31 00:00:00.0000, -3.814452933986168E+08, 2.156806486675924E+08, -2.052866522581271E+07,
2460833.500000000, A.D. 2025-Jun-07 00:00:00.0000, -3.882419713940365E+08, 2.084466758434194E+08, -1.921564779968001E+07,
2460840.500000000, A.D. 2025-Jun-14 00:00:00.0000, -3.948189765412683E+08, 2.010947919772805E+08, -1.789175496307930E+07,
2460847.500000000, A.D. 2025-Jun-21 00:00:00.0000, -4.011761411618811E+08, 1.936309651185574E+08, -1.655789679310629E+07,
2460854.500000000, A.D. 2025-Jun-28 00:00:00.0000, -4.073134061390514E+08, 1.860610284275096E+08, -1.521495951531298E+07,
2460861.500000000, A.D. 2025-Jul-05 00:00:00.0000, -4.132308125436336E+08, 1.783906832327546E+08, -1.386380634485200E+07,
2460868.500000000, A.D. 2025-Jul-12 00:00:00.0000, -4.189284942404155E+08, 1.706255026922430E+08, -1.250527823440237E+07,
2460875.500000000, A.D. 2025-Jul-19 00:00:00.0000, -4.244066712600432E+08, 1.627709354632056E+08, -1.114019459107555E+07,
2460882.500000000, A.D. 2025-Jul-26 00:00:00.0000, -4.296656437014868E+08, 1.548323093069178E+08, -9.769353984077804E+06,
2460889.500000000, A.D. 2025-Aug-02 00:00:00.0000, -4.347057860754875E+08, 1.468148346341286E+08, -8.393534845533736E+06,
2460896.500000000, A.D. 2025-Aug-09 00:00:00.0000, -4.395275420426747E+08, 1.387236079627741E+08, -7.013496166277021E+06,
2460903.500000000, A.D. 2025-Aug-16 00:00:00.0000, -4.441314194476622E+08, 1.305636152129616E+08, -5.629978197528809E+06,
2460910.500000000, A.D. 2025-Aug-23 00:00:00.0000, -4.485179853357338E+08, 1.223397348456005E+08, -4.243703182829820E+06,
2460917.500000000, A.D. 2025-Aug-30 00:00:00.0000, -4.526878606032987E+08, 1.140567415498930E+08, -2.855376091078758E+06,
2460924.500000000, A.D. 2025-Sep-06 00:00:00.0000, -4.566417156817764E+08, 1.057193114720284E+08, -1.465685138100430E+06,
2460931.500000000, A.D. 2025-Sep-13 00:00:00.0000, -4.603802689096678E+08, 9.733202649584998E+07, -7.530214591928571E+04,
2460938.500000000, A.D. 2025-Sep-20 00:00:00.0000, -4.639042843040363E+08, 8.889937592715856E+07, 1.315116826155614E+06,
2460945.500000000, A.D. 2025-Sep-27 00:00:00.0000, -4.672145676554862E+08, 8.042575868946177E+07, 2.704930736452352E+06,
2460952.500000000, A.D. 2025-Oct-04 00:00:00.0000, -4.703119629478836E+08, 7.191548656576888E+07, 4.093512931184292E+06,
2460959.500000000, A.D. 2025-Oct-11 00:00:00.0000, -4.731973494641203E+08, 6.337278754052594E+07, 5.480250587180633E+06,
2460966.500000000, A.D. 2025-Oct-18 00:00:00.0000, -4.758716392821171E+08, 5.480180896641587E+07, 6.864544178594727E+06,
2460973.500000000, A.D. 2025-Oct-25 00:00:00.0000, -4.783357750086709E+08, 4.620662056686237E+07, 8.245806955622718E+06,
2460980.500000000, A.D. 2025-Nov-01 00:00:00.0000, -4.805907276986210E+08, 3.759121728951326E+07, 9.623464432699818E+06,
2460987.500000000, A.D. 2025-Nov-08 00:00:00.0000, -4.826374949121708E+08, 2.895952197867662E+07, 1.099695388009690E+07,
2460994.500000000, A.D. 2025-Nov-15 00:00:00.0000, -4.844770987512231E+08, 2.031538780709595E+07, 1.236572380006675E+07,
2461001.500000000, A.D. 2025-Nov-22 00:00:00.0000, -4.861105834626608E+08, 1.166260068617535E+07, 1.372923336797745E+07,
2461008.500000000, A.D. 2025-Nov-29 00:00:00.0000, -4.875390127540424E+08, 3.004882789339729E+06, 1.508695194458672E+07,
2461015.500000000, A.D. 2025-Dec-06 00:00:00.0000, -4.887634690927266E+08, -5.654102947056472E+06, 1.643835885658065E+07,
2461022.500000000, A.D. 2025-Dec-13 00:00:00.0000, -4.897850545497091E+08, -1.431075071405386E+07, 1.778294312962331E+07,
2461029.500000000, A.D. 2025-Dec-20 00:00:00.0000, -4.906048896888914E+08, -2.296151108541758E+07, 1.912020293680854E+07,
2461036.500000000, A.D. 2025-Dec-27 00:00:00.0000, -4.912241115671780E+08, -3.160288904404454E+07, 2.044964507247204E+07,
2461043.500000000, A.D. 2026-Jan-03 00:00:00.0000, -4.916438722970589E+08, -4.023144139382273E+07, 2.177078453446574E+07,
2461050.500000000, A.D. 2026-Jan-10 00:00:00.0000, -4.918653380564043E+08, -4.884377423450749E+07, 2.308314414894030E+07,
2461057.500000000, A.D. 2026-Jan-17 00:00:00.0000, -4.918896883080100E+08, -5.743654058900805E+07, 2.438625420852577E+07,
2461064.500000000, A.D. 2026-Jan-24 00:00:00.0000, -4.917181151459972E+08, -6.600643815795699E+07, 2.567965211837569E+07,
2461071.500000000, A.D. 2026-Jan-31 00:00:00.0000, -4.913518227408683E+08, -7.455020720656161E+07, 2.696288204707678E+07,
2461078.500000000, A.D. 2026-Feb-07 00:00:00.0000, -4.907920268173763E+08, -8.306462863872208E+07, 2.823549457186040E+07,
2461085.500000000, A.D. 2026-Feb-14 00:00:00.0000, -4.900399539082401E+08, -9.154652227133957E+07, 2.949704629342119E+07,
2461092.500000000, A.D. 2026-Feb-21 00:00:00.0000, -4.890968399924428E+08, -9.999274472940823E+07, 3.074709943172198E+07,
2461099.500000000, A.D. 2026-Feb-28 00:00:00.0000, -4.879639295993379E+08, -1.084001858063279E+08, 3.198522159627652E+07,
2461106.500000000, A.D. 2026-Mar-07 00:00:00.0000, -4.866424774343346E+08, -1.167657652380385E+08, 3.321098576007202E+07,
2461113.500000000, A.D. 2026-Mar-14 00:00:00.0000, -4.851337497491248E+08, -1.250864322222197E+08, 3.442396999175749E+07,
2461120.500000000, A.D. 2026-Mar-21 00:00:00.0000, -4.834390236715578E+08, -1.333591647819240E+08, 3.562375701933710E+07,
2461127.500000000, A.D. 2026-Mar-28 00:00:00.0000, -4.815595865010237E+08, -1.415809679425369E+08, 3.680993389350566E+07,
2461134.500000000, A.D. 2026-Apr-04 00:00:00.0000, -4.794967355699873E+08, -1.497488716864113E+08, 3.798209172676861E+07,
2461141.500000000, A.D. 2026-Apr-11 00:00:00.0000, -4.772517783958626E+08, -1.578599290441569E+08, 3.913982545358473E+07,
2461148.500000000, A.D. 2026-Apr-18 00:00:00.0000, -4.748260329623851E+08, -1.659112143280878E+08, 4.028273359625643E+07,
2461155.500000000, A.D. 2026-Apr-25 00:00:00.0000, -4.722208280829875E+08, -1.738998214919340E+08, 4.141041803348843E+07,
2461162.500000000, A.D. 2026-May-02 00:00:00.0000, -4.694375038139285E+08, -1.818228626454738E+08, 4.252248376632689E+07,
2461169.500000000, A.D. 2026-May-09 00:00:00.0000, -4.664774117914051E+08, -1.896774667894996E+08, 4.361853866462151E+07,
2461176.500000000, A.D. 2026-May-16 00:00:00.0000, -4.633419151139563E+08, -1.974607786318932E+08, 4.469819317065328E+07,
2461183.500000000, A.D. 2026-May-23 00:00:00.0000, -4.600323877177669E+08, -2.051699564613736E+08, 4.576106003868780E+07,
2461190.500000000, A.D. 2026-May-30 00:00:00.0000, -4.565502153227917E+08, -2.128021687583956E+08, 4.680675432705484E+07,
2461197.500000000, A.D. 2026-Jun-06 00:00:00.0000, -4.528967982673908E+08, -2.203545928163841E+08, 4.783489340418179E+07,
2461204.500000000, A.D. 2026-Jun-13 00:00:00.0000, -4.490735525670591E+08, -2.278244151735773E+08, 4.884509664859257E+07,
2461211.500000000, A.D. 2026-Jun-20 00:00:00.0000, -4.450819096989946E+08, -2.352088309272154E+08, 4.983698512782039E+07,
2461218.500000000, A.D. 2026-Jun-27 00:00:00.0000, -4.409233168101924E+08, -2.425050422676262E+08, 5.081018138377300E+07,
2461225.500000000, A.D. 2026-Jul-04 00:00:00.0000, -4.365992373482707E+08, -2.497102570055273E+08, 5.176430926060379E+07,
2461232.500000000, A.D. 2026-Jul-11 00:00:00.0000, -4.321111518605087E+08, -2.568216872235283E+08, 5.269899374040285E+07,
2461239.500000000, A.D. 2026-Jul-18 00:00:00.0000, -4.274605588681318E+08, -2.638365480257084E+08, 5.361386077977300E+07,
2461246.500000000, A.D. 2026-Jul-25 00:00:00.0000, -4.226489757917114E+08, -2.707520563827746E+08, 5.450853714489225E+07,
2461253.500000000, A.D. 2026-Aug-01 00:00:00.0000, -4.176779398808424E+08, -2.775654301215391E+08, 5.538265023655296E+07,
2461260.500000000, A.D. 2026-Aug-08 00:00:00.0000, -4.125490089353410E+08, -2.842738870950299E+08, 5.623582788257438E+07,
2461267.500000000, A.D. 2026-Aug-15 00:00:00.0000, -4.072637614053473E+08, -2.908746440826650E+08, 5.706769809645142E+07,
2461274.500000000, A.D. 2026-Aug-22 00:00:00.0000, -4.018237966333513E+08, -2.973649141984259E+08, 5.787788897190340E+07,
2461281.500000000, A.D. 2026-Aug-29 00:00:00.0000, -3.962307375286406E+08, -3.037419041792035E+08, 5.866602881103241E+07,
2461288.500000000, A.D. 2026-Sep-05 00:00:00.0000, -3.904862335425374E+08, -3.100028144218547E+08, 5.943174605609836E+07,
$$EOE